ORBCOMM FM105 [-]       
1 41181U 15081C   17345.88112236 -.00000085  00000-0  21161-4 0  9990
2 41181  47.0021 264.9295 0002680 285.0872  74.9710 14.43270697104204
